{
  "type": "FeatureCollection",
  "features": [
    {
      "type": "Feature",
      "properties": {
        "norad_id": 66947,
        "name": "STARLINK-36089",
        "group": "last-30-days",
        "lat": -4.063123559159755,
        "lon": -150.28387338341818,
        "alt_km": 314.38192765144413,
        "timestamp": "2025-12-17T10:52:53.102441+00:00",
        "meta_object_name": "STARLINK-36089",
        "meta_object_id": "2025-286Y",
        "meta_epoch": "2025-12-16T22:00:03.000096",
        "meta_mean_motion": 15.87911069,
        "meta_eccentricity": 6.193e-05,
        "meta_inclination": 53.1561,
        "meta_ra_of_asc_node": 29.3782,
        "meta_arg_of_pericenter": 87.3959,
        "meta_mean_anomaly": 269.4367,
        "meta_ephemeris_type": 0,
        "meta_classification_type": "U",
        "meta_norad_cat_id": 66947,
        "meta_element_set_no": 999,
        "meta_rev_at_epoch": 266,
        "meta_bstar": -0.0059200817,
        "meta_mean_motion_dot": -0.01426249,
        "meta_mean_motion_ddot": 0,
        "tle_line1": "1 66947U 25286Y   25350.91670139 -.01426249  00000+0 -59201-2 0  9994",
        "tle_line2": "2 66947  53.1561  29.3782 0000619  87.3959 269.4367 15.87911069  2661"
      },
      "geometry": {
        "type": "Point",
        "coordinates": [
          -150.28387338341818,
          -4.063123559159755
        ]
      }
    },
    {
      "type": "Feature",
      "properties": {
        "norad_id": 66948,
        "name": "STARLINK-36116",
        "group": "last-30-days",
        "lat": -2.4686206244724667,
        "lon": -151.48039149967622,
        "alt_km": 314.15888559305495,
        "timestamp": "2025-12-17T10:52:53.102452+00:00",
        "meta_object_name": "STARLINK-36116",
        "meta_object_id": "2025-286Z",
        "meta_epoch": "2025-12-16T22:00:03.000096",
        "meta_mean_motion": 15.87878157,
        "meta_eccentricity": 5.981e-05,
        "meta_inclination": 53.1562,
        "meta_ra_of_asc_node": 29.3823,
        "meta_arg_of_pericenter": 92.8441,
        "meta_mean_anomaly": 262.0454,
        "meta_ephemeris_type": 0,
        "meta_classification_type": "U",
        "meta_norad_cat_id": 66948,
        "meta_element_set_no": 999,
        "meta_rev_at_epoch": 266,
        "meta_bstar": -0.0058846273,
        "meta_mean_motion_dot": -0.01416779,
        "meta_mean_motion_ddot": 0,
        "tle_line1": "1 66948U 25286Z   25350.91670139 -.01416779  00000+0 -58846-2 0  9996",
        "tle_line2": "2 66948  53.1562  29.3823 0000598  92.8441 262.0454 15.87878157  2668"
      },
      "geometry": {
        "type": "Point",
        "coordinates": [
          -151.48039149967622,
          -2.4686206244724667
        ]
      }
    },
    {
      "type": "Feature",
      "properties": {
        "norad_id": 66949,
        "name": "STARLINK-36096",
        "group": "last-30-days",
        "lat": -5.689575389455113,
        "lon": -149.0568670046424,
        "alt_km": 314.5380447854732,
        "timestamp": "2025-12-17T10:52:53.102462+00:00",
        "meta_object_name": "STARLINK-36096",
        "meta_object_id": "2025-286AA",
        "meta_epoch": "2025-12-16T22:00:03.000096",
        "meta_mean_motion": 15.8792747,
        "meta_eccentricity": 5.601e-05,
        "meta_inclination": 53.156,
        "meta_ra_of_asc_node": 29.3742,
        "meta_arg_of_pericenter": 84.527,
        "meta_mean_anomaly": 274.2978,
        "meta_ephemeris_type": 0,
        "meta_classification_type": "U",
        "meta_norad_cat_id": 66949,
        "meta_element_set_no": 999,
        "meta_rev_at_epoch": 266,
        "meta_bstar": -0.0058632825,
        "meta_mean_motion_dot": -0.01415335,
        "meta_mean_motion_ddot": 0,
        "tle_line1": "1 66949U 25286AA  25350.91670139 -.01415335  00000+0 -58633-2 0  9998",
        "tle_line2": "2 66949  53.1560  29.3742 0000560  84.5270 274.2978 15.87927470  2663"
      },
      "geometry": {
        "type": "Point",
        "coordinates": [
          -149.0568670046424,
          -5.689575389455113
        ]
      }
    },
    {
      "type": "Feature",
      "properties": {
        "norad_id": 66950,
        "name": "STARLINK-36111",
        "group": "last-30-days",
        "lat": -9.062267185804195,
        "lon": -146.48105720462746,
        "alt_km": 314.83943545191414,
        "timestamp": "2025-12-17T10:52:53.102474+00:00",
        "meta_object_name": "STARLINK-36111",
        "meta_object_id": "2025-286AB",
        "meta_epoch": "2025-12-16T22:00:03.000096",
        "meta_mean_motion": 15.87990847,
        "meta_eccentricity": 5.584e-05,
        "meta_inclination": 53.1561,
        "meta_ra_of_asc_node": 29.3656,
        "meta_arg_of_pericenter": 88.4249,
        "meta_mean_anomaly": 274.5449,
        "meta_ephemeris_type": 0,
        "meta_classification_type": "U",
        "meta_norad_cat_id": 66950,
        "meta_element_set_no": 999,
        "meta_rev_at_epoch": 266,
        "meta_bstar": -0.0059592012,
        "meta_mean_motion_dot": -0.01439371,
        "meta_mean_motion_ddot": 0,
        "tle_line1": "1 66950U 25286AB  25350.91670139 -.01439371  00000+0 -59592-2 0  9991",
        "tle_line2": "2 66950  53.1561  29.3656 0000558  88.4249 274.5449 15.87990847  2660"
      },
      "geometry": {
        "type": "Point",
        "coordinates": [
          -146.48105720462746,
          -9.062267185804195
        ]
      }
    },
    {
      "type": "Feature",
      "properties": {
        "norad_id": 66951,
        "name": "STARLINK-35999",
        "group": "last-30-days",
        "lat": -10.836344855259803,
        "lon": -145.10249272175562,
        "alt_km": 314.9859063418371,
        "timestamp": "2025-12-17T10:52:53.102486+00:00",
        "meta_object_name": "STARLINK-35999",
        "meta_object_id": "2025-286AC",
        "meta_epoch": "2025-12-16T22:00:03.000096",
        "meta_mean_motion": 15.88012101,
        "meta_eccentricity": 6.412e-05,
        "meta_inclination": 53.1563,
        "meta_ra_of_asc_node": 29.3609,
        "meta_arg_of_pericenter": 90.7001,
        "meta_mean_anomaly": 274.4658,
        "meta_ephemeris_type": 0,
        "meta_classification_type": "U",
        "meta_norad_cat_id": 66951,
        "meta_element_set_no": 999,
        "meta_rev_at_epoch": 266,
        "meta_bstar": -0.0059556464,
        "meta_mean_motion_dot": -0.01440024,
        "meta_mean_motion_ddot": 0,
        "tle_line1": "1 66951U 25286AC  25350.91670139 -.01440024  00000+0 -59556-2 0  9999",
        "tle_line2": "2 66951  53.1563  29.3609 0000641  90.7001 274.4658 15.88012101  2666"
      },
      "geometry": {
        "type": "Point",
        "coordinates": [
          -145.10249272175562,
          -10.836344855259803
        ]
      }
    },
    {
      "type": "Feature",
      "properties": {
        "norad_id": 66952,
        "name": "STARLINK-36122",
        "group": "last-30-days",
        "lat": -7.407071250564498,
        "lon": -147.7514622041067,
        "alt_km": 314.69948439728887,
        "timestamp": "2025-12-17T10:52:53.102496+00:00",
        "meta_object_name": "STARLINK-36122",
        "meta_object_id": "2025-286AD",
        "meta_epoch": "2025-12-16T22:00:03.000096",
        "meta_mean_motion": 15.87960529,
        "meta_eccentricity": 5.698e-05,
        "meta_inclination": 53.1562,
        "meta_ra_of_asc_node": 29.3699,
        "meta_arg_of_pericenter": 86.864,
        "meta_mean_anomaly": 274.0708,
        "meta_ephemeris_type": 0,
        "meta_classification_type": "U",
        "meta_norad_cat_id": 66952,
        "meta_element_set_no": 999,
        "meta_rev_at_epoch": 266,
        "meta_bstar": -0.0059239921,
        "meta_mean_motion_dot": -0.01430115,
        "meta_mean_motion_ddot": 0,
        "tle_line1": "1 66952U 25286AD  25350.91670139 -.01430115  00000+0 -59240-2 0  9990",
        "tle_line2": "2 66952  53.1562  29.3699 0000569  86.8640 274.0708 15.87960529  2666"
      },
      "geometry": {
        "type": "Point",
        "coordinates": [
          -147.7514622041067,
          -7.407071250564498
        ]
      }
    },
    {
      "type": "Feature",
      "properties": {
        "norad_id": 66953,
        "name": "HULIANWANG DIGUI-114",
        "group": "last-30-days",
        "lat": 3.0115667129966304,
        "lon": -15.378539250621488,
        "alt_km": 1013.2713702333394,
        "timestamp": "2025-12-17T10:52:53.102509+00:00",
        "meta_object_name": "HULIANWANG DIGUI-114",
        "meta_object_id": "2025-287A",
        "meta_epoch": "2025-12-15T20:15:59.937408",
        "meta_mean_motion": 13.68689195,
        "meta_eccentricity": 0.00087999,
        "meta_inclination": 86.496,
        "meta_ra_of_asc_node": 345.0232,
        "meta_arg_of_pericenter": 195.8466,
        "meta_mean_anomaly": 164.2419,
        "meta_ephemeris_type": 0,
        "meta_classification_type": "U",
        "meta_norad_cat_id": 66953,
        "meta_element_set_no": 999,
        "meta_rev_at_epoch": 95,
        "meta_bstar": 2.5636052e-05,
        "meta_mean_motion_dot": 3.9e-07,
        "meta_mean_motion_ddot": 0,
        "tle_line1": "1 66953U 25287A   25349.84444372  .00000039  00000+0  25636-4 0  9999",
        "tle_line2": "2 66953  86.4960 345.0232 0008799 195.8466 164.2419 13.68689195   952"
      },
      "geometry": {
        "type": "Point",
        "coordinates": [
          -15.378539250621488,
          3.0115667129966304
        ]
      }
    }
  ]
}